ONEWEB-0709             
1 55172U 23004AJ  25349.71059322  .00000246  00000+0  65907-3 0  9992
2 55172  87.8851  57.6227 0001280  74.0502 286.0767 13.11416085141829
ONEWEB-0710             
1 55173U 23004AK  25349.89386789 -.00000042  00000+0 -14034-3 0  9993
2 55173  87.9108  42.3175 0001736 105.4093 254.7231 13.17646769143447
ONEWEB-0711             
1 55174U 23004AL  25349.60550417 -.00000532  00000+0 -15376-2 0  9997
2 55174  87.8863  57.6179 0001743 129.9103 230.2179 13.11412130141770
ONEWEB-0713             
1 55175U 23004AM  25349.92932158 -.00000198  00000+0 -59381-3 0  9992
2 55175  87.8858  57.5558 0001693 119.0208 241.1090 13.11417753141808
ONEWEB-0715             
1 55176U 23004AN  25349.92422095 -.00000349  00000+0 -10194-2 0  9993
2 55176  87.8862  57.5573 0001032  93.9158 266.2088 13.11416120141848
ONEWEB-0716             
1 55177U 23004AP  25349.88711902  .00000026  00000+0  34976-4 0  9993
2 55177  87.9107  42.3187 0001984  95.0508 265.0850 13.17649172143446
ONEWEB-0717             
1 55178U 23004AQ  25349.87023994 -.00000003  00000+0 -41468-4 0  9991
2 55178  87.9118  42.2934 0001568 123.8217 236.3064 13.17649166143499
ONEWEB-0719             
1 55179U 23004AR  25349.57662213  .00000054  00000+0  10509-3 0  9997
2 55179  87.9117  42.3340 0002021 100.0137 260.1223 13.17647749143402
ONEWEB-0530             
1 55796U 23029A   25349.91052375  .00000045  00000+0  79736-4 0  9997
2 55796  87.9200 311.0351 0001832  98.2763 261.8578 13.20770171136953
ONEWEB-0534             
1 55797U 23029B   25349.89790145  .00000052  00000+0  96743-4 0  9994
2 55797  87.9197 311.0380 0001999  81.5719 278.5641 13.20769960136951
ONEWEB-0556             
1 55798U 23029C   25349.90422439  .00000029  00000+0  38163-4 0  9991
2 55798  87.9202 311.0368 0002779  90.2221 269.9231 13.20772971136952
ONEWEB-0562             
1 55799U 23029D   25349.89160615 -.00000069  00000+0 -20163-3 0  9991
2 55799  87.9199 311.0214 0002232 105.2075 254.9305 13.20771399136955
ONEWEB-0563             
1 55800U 23029E   25349.88527713  .00000027  00000+0  35624-4 0  9990
2 55800  87.9204 311.0503 0002091  79.7095 280.4274 13.20769900136949
ONEWEB-0564             
1 55801U 23029F   25349.95472634 -.00000052  00000+0 -15933-3 0  9990
2 55801  87.9195 311.0121 0001886  93.4704 266.6646 13.20769227136969
ONEWEB-0638             
1 55802U 23029G   25349.94920986  .00000005  00000+0 -19977-4 0  9998
2 55802  87.8987 326.2746 0002188  93.5117 266.6263 13.14503616135329
ONEWEB-0639             
1 55803U 23029H   25349.93436490  .00000119  00000+0  26383-3 0  9993
2 55803  87.9194 341.4432 0002413  62.1064 298.0313 13.19724768134733
ONEWEB-0640             
1 55804U 23029J   25349.95871664 -.00000099  00000+0 -30210-3 0  9995
2 55804  87.8990 326.2603 0002606  85.9607 274.1820 13.14504134135342
ONEWEB-0641             
1 55805U 23029K   25349.92962273  .00000148  00000+0  33816-3 0  9998
2 55805  87.9200 341.4255 0001850  82.1627 277.9716 13.19725212134746
ONEWEB-0642             
1 55806U 23029L   25349.92488671  .00000074  00000+0  15341-3 0  9995
2 55806  87.9191 341.4495 0002042  62.0598 298.0741 13.19725100134737
ONEWEB-0643             
1 55807U 23029M   25349.92858455  .00000268  00000+0  68794-3 0  9992
2 55807  87.8993 326.2528 0001739  61.3712 298.7593 13.14504510135319
ONEWEB-0644             
1 55808U 23029N   25349.92014622  .00000095  00000+0  20558-3 0  9997
2 55808  87.9191 341.4598 0001833  74.9721 285.1614 13.19727358134733
ONEWEB-0645             
1 55809U 23029P   25349.94225991  .00000065  00000+0  13003-3 0  9997
2 55809  87.9188 341.4488 0002251  77.3751 282.7633 13.19723458134734
ONEWEB-0646             
1 55810U 23029Q   25349.95963496  .00000038  00000+0  63541-4 0  9992
2 55810  87.9200 341.4369 0001823  78.1092 282.0245 13.19724072134724
ONEWEB-0648             
1 55811U 23029R   25349.89686708 -.00000483  00000+0 -13370-2 0  9993
2 55811  87.8994 326.2206 0002537  66.8907 293.2490 13.14502141135315
ONEWEB-0649             
1 55812U 23029S   25349.90908736  .00000063  00000+0  12398-3 0  9996
2 55812  87.9202 341.4437 0002068  77.3712 282.7652 13.19725326134751
ONEWEB-0650             
1 55813U 23029T   25349.90434644  .00000001  00000+0 -29304-4 0  9998
2 55813  87.9192 341.4503 0001959  73.2424 286.8923 13.19723989134723
ONEWEB-0652             
1 55814U 23029U   25349.95396108 -.00000054  00000+0 -17967-3 0  9996
2 55814  87.8991 326.2295 0001708  88.7190 271.4136 13.14503931135299
ONEWEB-0653             
1 55815U 23029V   25349.93810384  .00000221  00000+0  56276-3 0  9992
2 55815  87.8990 326.2223 0001903  88.8550 271.2798 13.14504283135325
ONEWEB-0654             
1 55816U 23029W   25349.93334403  .00000252  00000+0  64614-3 0  9995
2 55816  87.8991 326.2226 0001745  95.8808 264.2521 13.14504518135347
ONEWEB-0656             
1 55817U 23029X   25349.94841691 -.00000086  00000+0 -24257-3 0  9995
2 55817  87.9207 310.9710 0001784  95.9594 264.1742 13.20770533136965
ONEWEB-0657             
1 55818U 23029Y   25349.89961539 -.00000202  00000+0 -53798-3 0  9996
2 55818  87.9191 341.4533 0001112  98.7945 261.3314 13.19725628134736
ONEWEB-0658             
1 55819U 23029Z   25349.89487522 -.00000198  00000+0 -52640-3 0  9991
2 55819  87.9209 341.4084 0001877  73.8250 286.3090 13.19724437134745
ONEWEB-0660             
1 55820U 23029AA  25349.91114438 -.00000004  00000+0 -44372-4 0  9999
2 55820  87.8996 326.2062 0002134  82.6574 277.4798 13.14504323135326
ONEWEB-0661             
1 55821U 23029AB  25349.94602944  .00000037  00000+0  65339-4 0  9997
2 55821  87.8989 326.2645 0002156  85.2006 274.9370 13.14504301135312
ONEWEB-0662             
1 55822U 23029AC  25349.90479333 -.00000143  00000+0 -41906-3 0  9991
2 55822  87.8990 326.2788 0002130  80.9583 279.1788 13.14504907135353
ONEWEB-0663             
1 55823U 23029AD  25349.91924769  .00000038  00000+0  60740-4 0  9990
2 55823  87.9219 311.0437 0002234  73.9239 286.2140 13.20853977136956
ONEWEB-0664             
1 55824U 23029AE  25349.93577994 -.00000052  00000+0 -15949-3 0  9995
2 55824  87.9200 311.0451 0002174  89.2929 270.8453 13.20769665136958
ONEWEB-0665             
1 55825U 23029AF  25349.94285841  .00000080  00000+0  18143-3 0  9992
2 55825  87.8993 326.2432 0002074  79.5763 280.5600 13.14504616135330
ONEWEB-0666             
1 55826U 23029AG  25349.92947522  .00000052  00000+0  96006-4 0  9996
2 55826  87.9200 311.0353 0001192  93.6103 266.5166 13.20770255136964
ONEWEB-0667             
1 55827U 23029AH  25349.92317196  .00000006  00000+0 -16650-4 0  9992
2 55827  87.9210 310.9697 0002047  81.4674 278.6692 13.20771498136950
ONEWEB-0669             
1 55828U 23029AJ  25349.91843586 -.00000023  00000+0 -88483-4 0  9992
2 55828  87.9198 311.0049 0001968 102.4524 257.6830 13.20771523136958
ONEWEB-0670             
1 55829U 23029AK  25349.92067497  .00000225  00000+0  57142-3 0  9992
2 55829  87.8992 326.2679 0002194  87.9876 272.1505 13.14503456135351
ONEWEB-0671             
1 55830U 23029AL  25349.89013057 -.00000055  00000+0 -17003-3 0  9998
2 55830  87.9195 341.4510 0001995  85.9954 274.1407 13.19725525134726
ONEWEB-0672             
1 55831U 23029AM  25349.91369140  .00000089  00000+0  18680-3 0  9996
2 55831  87.9204 310.9867 0001676  87.6832 272.4493 13.20771343136958
ONEWEB-0673             
1 55832U 23029AN  25349.94305647  .00000085  00000+0  18102-3 0  9997
2 55832  87.9210 341.4209 0001951  87.3597 272.7759 13.19726147134738
ONEWEB-0674             
1 55833U 23029AP  25349.88894952 -.00000265  00000+0 -74944-3 0  9991
2 55833  87.8983 326.2519 0002268  87.4347 272.7042 13.14504402135331
ONEWEB-0675             
1 55834U 23029AQ  25349.95805689 -.00000027  00000+0 -10017-3 0  9996
2 55834  87.9191 341.4458 0001520  85.3262 274.8045 13.19724082134752
ONEWEB-0720             
1 55835U 23029AR  25349.95015745  .00000061  00000+0  12053-3 0  9991
2 55835  87.9192 341.4455 0002012  78.2632 281.8727 13.19724900134675
ONEWEB-0537             
1 56046U 23043A   25349.81393115  .00000001  00000+0 -30612-4 0  9994
2 56046  87.9043 265.2840 0001476  75.1583 284.9712 13.16595188134837
ONEWEB-0538             
1 56047U 23043B   25349.80758991 -.00000103  00000+0 -30295-3 0  9991
2 56047  87.9045 265.2893 0001587  64.5746 295.5549 13.16595728134841
ONEWEB-0546             
1 56048U 23043C   25349.79492995 -.00000099  00000+0 -29138-3 0  9997
2 56048  87.9060 265.2838 0001108  88.8323 271.2935 13.16596521134838
ONEWEB-0547             
1 56049U 23043D   25349.83651486  .00000007  00000+0 -15708-4 0  9992
2 56049  87.9223 280.5432 0001865  71.7369 288.3968 13.21825809134005
ONEWEB-0548             
1 56050U 23043E   25349.81947047 -.00000015  00000+0 -73979-4 0  9997
2 56050  87.9038 265.2853 0002080  84.9785 275.1583 13.16594228134836
ONEWEB-0549             
1 56051U 23043F   25349.82910573 -.00000052  00000+0 -15857-3 0  9994
2 56051  87.9222 280.5588 0001831  67.6706 292.4622 13.21825782134004
ONEWEB-0550             
1 56052U 23043G   25349.81592182 -.00001245  00000+0 -30451-2 0  9997
2 56052  87.9221 280.5563 0001848  81.1487 278.9856 13.21830851134003
ONEWEB-0551             
1 56053U 23043H   25349.85707523  .00000037  00000+0  64487-4 0  9993
2 56053  87.8997 295.8155 0001919  72.3174 287.8166 13.15549223132298
ONEWEB-0552             
1 56054U 23043J   25349.81100052  .00000029  00000+0  39799-4 0  9993
2 56054  87.9221 280.5661 0002022  72.0756 288.0599 13.21827116134003
ONEWEB-0553             
1 56055U 23043K   25349.80125668 -.00000087  00000+0 -26015-3 0  9995
2 56055  87.9047 265.2897 0001461  84.3917 275.7381 13.16595567134842
ONEWEB-0554             
1 56056U 23043L   25349.78858756 -.00000313  00000+0 -85344-3 0  9996
2 56056  87.9032 265.3060 0001859  81.8464 278.2878 13.16593672134822
